start=new Date('2022-01-03T00:00:00.000Z').valueOf();
sats=[{"INCLINATION":"53.0556","MEAN_MOTION":"15.06398424","APOAPSIS":"548.597","TLE_LINE2":"2 48441  53.0556 196.5211 0001990  77.9702 282.1510 15.06398424 36474","COUNTRY_CODE":"US","CLASSIFICATION_TYPE":"U","MEAN_MOTION_DDOT":"0.0000000000000","ARG_OF_PERICENTER":"77.9702","REV_AT_EPOCH":"3647","LAUNCH_DATE":"2021-05-09","MEAN_ANOMALY":"282.1510","MEAN_ELEMENT_THEORY":"SGP4","SITE":"AFETR","TLE_LINE1":"1 48441U 21040P   22002.70369455  .00000726  00000-0  67648-4 0  9993","RCS_SIZE":"LARGE","CENTER_NAME":"EARTH","GP_ID":"192943734","FILE":"3255249","OBJECT_NAME":"STARLINK-2702","ELEMENT_SET_NO":"999","PERIAPSIS":"545.840","OBJECT_TYPE":"PAYLOAD","MEAN_MOTION_DOT":"0.00000726","BSTAR":"0.00006764800000","ECCENTRICITY":"0.00019900","RA_OF_ASC_NODE":"196.5211","PERIOD":"95.592","SEMIMAJOR_AXIS":"6925.353","TIME_SYSTEM":"UTC","OBJECT_ID":"2021-040P","EPOCH":"2022-01-02T16:53:19.209120","DECAY_DATE":null,"REF_FRAME":"TEME","NORAD_CAT_ID":"48441","EPHEMERIS_TYPE":"0"},{"ELEMENT_SET_NO":"999","OBJECT_TYPE":"PAYLOAD","PERIAPSIS":"545.520","ECCENTRICITY":"0.00024500","MEAN_MOTION_DOT":"0.00000786","BSTAR":"0.00007166500000","PERIOD":"95.592","SEMIMAJOR_AXIS":"6925.351","RA_OF_ASC_NODE":"195.6346","TIME_SYSTEM":"UTC","OBJECT_ID":"2021-040Q","EPOCH":"2022-01-02T21:34:37.940736","DECAY_DATE":null,"REF_FRAME":"TEME","NORAD_CAT_ID":"48442","EPHEMERIS_TYPE":"0","INCLINATION":"53.0542","MEAN_MOTION":"15.06399083","APOAPSIS":"548.913","TLE_LINE2":"2 48442  53.0542 195.6346 0002450  84.2378 275.8890 15.06399083 36507","COUNTRY_CODE":"US","CLASSIFICATION_TYPE":"U","MEAN_MOTION_DDOT":"0.0000000000000","ARG_OF_PERICENTER":"84.2378","REV_AT_EPOCH":"3650","LAUNCH_DATE":"2021-05-09","MEAN_ELEMENT_THEORY":"SGP4","MEAN_ANOMALY":"275.8890","SITE":"AFETR","TLE_LINE1":"1 48442U 21040Q   22002.89905024  .00000786  00000-0  71665-4 0  9992","RCS_SIZE":"LARGE","CENTER_NAME":"EARTH","GP_ID":"192943984","FILE":"3255249","OBJECT_NAME":"STARLINK-2644"},{"FILE":"3255249","GP_ID":"192944235","OBJECT_NAME":"STARLINK-2663","RCS_SIZE":"LARGE","CENTER_NAME":"EARTH","SITE":"AFETR","TLE_LINE1":"1 48443U 21040R   22002.76268000 -.00001091  00000-0 -54371-4 0  9992","MEAN_ANOMALY":"279.0594","MEAN_ELEMENT_THEORY":"SGP4","LAUNCH_DATE":"2021-05-09","MEAN_MOTION_DDOT":"0.0000000000000","REV_AT_EPOCH":"3648","ARG_OF_PERICENTER":"81.0657","COUNTRY_CODE":"US","CLASSIFICATION_TYPE":"U","APOAPSIS":"548.837","TLE_LINE2":"2 48443  53.0546 196.2484 0002313  81.0657 279.0594 15.06392968 36484","INCLINATION":"53.0546","MEAN_MOTION":"15.06392968","NORAD_CAT_ID":"48443","REF_FRAME":"TEME","EPHEMERIS_TYPE":"0","EPOCH":"2022-01-02T18:18:15.552000","DECAY_DATE":null,"TIME_SYSTEM":"UTC","PERIOD":"95.593","SEMIMAJOR_AXIS":"6925.370","RA_OF_ASC_NODE":"196.2484","OBJECT_ID":"2021-040R","MEAN_MOTION_DOT":"-0.00001091","BSTAR":"-0.00005437100000","ECCENTRICITY":"0.00023130","OBJECT_TYPE":"PAYLOAD","PERIAPSIS":"545.633","ELEMENT_SET_NO":"999"},{"PERIAPSIS":"545.636","OBJECT_TYPE":"PAYLOAD","ELEMENT_SET_NO":"999","MEAN_MOTION_DOT":"0.00000882","ECCENTRICITY":"0.00022770","BSTAR":"0.00007813700000","EPOCH":"2022-01-02T21:24:00.840096","DECAY_DATE":null,"TIME_SYSTEM":"UTC","PERIOD":"95.592","RA_OF_ASC_NODE":"195.6749","SEMIMAJOR_AXIS":"6925.348","OBJECT_ID":"2021-040S","NORAD_CAT_ID":"48444","REF_FRAME":"TEME","EPHEMERIS_TYPE":"0","APOAPSIS":"548.790","TLE_LINE2":"2 48444  53.0547 195.6749 0002277  81.9279 278.1968 15.06400182 36507","INCLINATION":"53.0547","MEAN_MOTION":"15.06400182","MEAN_MOTION_DDOT":"0.0000000000000","REV_AT_EPOCH":"3650","ARG_OF_PERICENTER":"81.9279","COUNTRY_CODE":"US","CLASSIFICATION_TYPE":"U","SITE":"AFETR","TLE_LINE1":"1 48444U 21040S   22002.89167639  .00000882  00000-0  78137-4 0  9994","MEAN_ELEMENT_THEORY":"SGP4","MEAN_ANOMALY":"278.1968","LAUNCH_DATE":"2021-05-09","GP_ID":"192944985","FILE":"3255249","OBJECT_NAME":"STARLINK-2645","RCS_SIZE":"LARGE","CENTER_NAME":"EARTH"},{"OBJECT_TYPE":"PAYLOAD","PERIAPSIS":"545.597","ELEMENT_SET_NO":"999","ECCENTRICITY":"0.00023520","MEAN_MOTION_DOT":"0.00000788","BSTAR":"0.00007183400000","EPOCH":"2022-01-02T18:07:38.392608","DECAY_DATE":null,"SEMIMAJOR_AXIS":"6925.361","PERIOD":"95.592","RA_OF_ASC_NODE":"196.2928","TIME_SYSTEM":"UTC","OBJECT_ID":"2021-040T","REF_FRAME":"TEME","NORAD_CAT_ID":"48445","EPHEMERIS_TYPE":"0","APOAPSIS":"548.855","TLE_LINE2":"2 48445  53.0555 196.2928 0002352  81.3780 278.7475 15.06395913 36489","INCLINATION":"53.0555","MEAN_MOTION":"15.06395913","MEAN_MOTION_DDOT":"0.0000000000000","ARG_OF_PERICENTER":"81.3780","REV_AT_EPOCH":"3648","COUNTRY_CODE":"US","CLASSIFICATION_TYPE":"U","SITE":"AFETR","TLE_LINE1":"1 48445U 21040T   22002.75530547  .00000788  00000-0  71834-4 0  9994","LAUNCH_DATE":"2021-05-09","MEAN_ANOMALY":"278.7475","MEAN_ELEMENT_THEORY":"SGP4","GP_ID":"192943234","FILE":"3255249","OBJECT_NAME":"STARLINK-2634","RCS_SIZE":"LARGE","CENTER_NAME":"EARTH"},{"NORAD_CAT_ID":"48446","REF_FRAME":"TEME","EPHEMERIS_TYPE":"0","EPOCH":"2022-01-02T18:02:22.186752","DECAY_DATE":null,"TIME_SYSTEM":"UTC","SEMIMAJOR_AXIS":"6925.393","PERIOD":"95.593","RA_OF_ASC_NODE":"196.3028","OBJECT_ID":"2021-040U","BSTAR":"0.00006313700000","MEAN_MOTION_DOT":"0.00000658","ECCENTRICITY":"0.00026010","OBJECT_TYPE":"PAYLOAD","PERIAPSIS":"545.457","ELEMENT_SET_NO":"999","GP_ID":"192943484","FILE":"3255249","OBJECT_NAME":"STARLINK-2247","RCS_SIZE":"LARGE","CENTER_NAME":"EARTH","SITE":"AFETR","TLE_LINE1":"1 48446U 21040U   22002.75164568  .00000658  00000-0  63137-4 0  9994","MEAN_ELEMENT_THEORY":"SGP4","MEAN_ANOMALY":"285.6358","LAUNCH_DATE":"2021-05-09","MEAN_MOTION_DDOT":"0.0000000000000","REV_AT_EPOCH":"3648","ARG_OF_PERICENTER":"74.4918","COUNTRY_CODE":"US","CLASSIFICATION_TYPE":"U","APOAPSIS":"549.060","TLE_LINE2":"2 48446  53.0547 196.3028 0002601  74.4918 285.6358 15.06385398 36489","INCLINATION":"53.0547","MEAN_MOTION":"15.06385398"},{"TLE_LINE2":"2 48447  53.0549 196.3184 0002280  78.0727 282.0517 15.06397133 36484","APOAPSIS":"548.801","MEAN_MOTION":"15.06397133","INCLINATION":"53.0549","ARG_OF_PERICENTER":"78.0727","REV_AT_EPOCH":"3648","MEAN_MOTION_DDOT":"0.0000000000000","CLASSIFICATION_TYPE":"U","COUNTRY_CODE":"US","TLE_LINE1":"1 48447U 21040V   22002.74793348  .00001280  00000-0  10482-3 0  9994","SITE":"AFETR","LAUNCH_DATE":"2021-05-09","MEAN_ANOMALY":"282.0517","MEAN_ELEMENT_THEORY":"SGP4","OBJECT_NAME":"STARLINK-2269","FILE":"3255249","GP_ID":"192944736","CENTER_NAME":"EARTH","RCS_SIZE":"LARGE","PERIAPSIS":"545.643","OBJECT_TYPE":"PAYLOAD","ELEMENT_SET_NO":"999","MEAN_MOTION_DOT":"0.00001280","ECCENTRICITY":"0.00022800","BSTAR":"0.00010482000000","DECAY_DATE":null,"EPOCH":"2022-01-02T17:57:01.452672","OBJECT_ID":"2021-040V","RA_OF_ASC_NODE":"196.3184","PERIOD":"95.592","SEMIMAJOR_AXIS":"6925.357","TIME_SYSTEM":"UTC","EPHEMERIS_TYPE":"0","REF_FRAME":"TEME","NORAD_CAT_ID":"48447"},{"NORAD_CAT_ID":"48448","REF_FRAME":"TEME","EPHEMERIS_TYPE":"0","TIME_SYSTEM":"UTC","PERIOD":"95.593","SEMIMAJOR_AXIS":"6925.386","RA_OF_ASC_NODE":"195.6156","OBJECT_ID":"2021-040W","EPOCH":"2022-01-02T21:43:54.316128","DECAY_DATE":null,"BSTAR":"-0.00006093400000","MEAN_MOTION_DOT":"-0.00001189","ECCENTRICITY":"0.00022110","ELEMENT_SET_NO":"999","PERIAPSIS":"545.720","OBJECT_TYPE":"PAYLOAD","RCS_SIZE":"LARGE","CENTER_NAME":"EARTH","GP_ID":"192944485","FILE":"3255249","OBJECT_NAME":"STARLINK-2632","MEAN_ANOMALY":"279.6212","MEAN_ELEMENT_THEORY":"SGP4","LAUNCH_DATE":"2021-05-09","SITE":"AFETR","TLE_LINE1":"1 48448U 21040W   22002.90548977 -.00001189  00000-0 -60934-4 0  9997","COUNTRY_CODE":"US","CLASSIFICATION_TYPE":"U","MEAN_MOTION_DDOT":"0.0000000000000","REV_AT_EPOCH":"3650","ARG_OF_PERICENTER":"80.5026","INCLINATION":"53.0559","MEAN_MOTION":"15.06387740","APOAPSIS":"548.782","TLE_LINE2":"2 48448  53.0559 195.6156 0002211  80.5026 279.6212 15.06387740 36501"},{"EPHEMERIS_TYPE":"0","REF_FRAME":"TEME","NORAD_CAT_ID":"48449","DECAY_DATE":null,"EPOCH":"2022-01-02T17:51:43.219008","OBJECT_ID":"2021-040X","RA_OF_ASC_NODE":"196.3401","PERIOD":"95.593","SEMIMAJOR_AXIS":"6925.375","TIME_SYSTEM":"UTC","MEAN_MOTION_DOT":"-0.00000598","BSTAR":"-0.00002120800000","ECCENTRICITY":"0.00022770","PERIAPSIS":"545.663","OBJECT_TYPE":"PAYLOAD","ELEMENT_SET_NO":"999","OBJECT_NAME":"STARLINK-2655","FILE":"3255249","GP_ID":"192943735","CENTER_NAME":"EARTH","RCS_SIZE":"LARGE","TLE_LINE1":"1 48449U 21040X   22002.74425022 -.00000598  00000-0 -21208-4 0  9999","SITE":"AFETR","LAUNCH_DATE":"2021-05-09","MEAN_ANOMALY":"281.4756","MEAN_ELEMENT_THEORY":"SGP4","ARG_OF_PERICENTER":"78.6489","REV_AT_EPOCH":"3648","MEAN_MOTION_DDOT":"0.0000000000000","CLASSIFICATION_TYPE":"U","COUNTRY_CODE":"US","TLE_LINE2":"2 48449  53.0557 196.3401 0002277  78.6489 281.4756 15.06391525 36481","APOAPSIS":"548.816","MEAN_MOTION":"15.06391525","INCLINATION":"53.0557"},{"MEAN_MOTION_DOT":"0.00001739","BSTAR":"0.00013565000000","ECCENTRICITY":"0.00019840","OBJECT_TYPE":"PAYLOAD","PERIAPSIS":"545.880","ELEMENT_SET_NO":"999","EPHEMERIS_TYPE":"0","NORAD_CAT_ID":"48450","REF_FRAME":"TEME","DECAY_DATE":null,"EPOCH":"2022-01-02T20:57:30.609216","OBJECT_ID":"2021-040Y","TIME_SYSTEM":"UTC","PERIOD":"95.593","SEMIMAJOR_AXIS":"6925.389","RA_OF_ASC_NODE":"195.7547","REV_AT_EPOCH":"3650","ARG_OF_PERICENTER":"80.7192","MEAN_MOTION_DDOT":"0.0000000000000","CLASSIFICATION_TYPE":"U","COUNTRY_CODE":"US","TLE_LINE2":"2 48450  53.0548 195.7547 0001984  80.7192 279.4021 15.06386915 36508","APOAPSIS":"548.628","MEAN_MOTION":"15.06386915","INCLINATION":"53.0548","OBJECT_NAME":"STARLINK-2660","GP_ID":"192943985","FILE":"3255249","CENTER_NAME":"EARTH","RCS_SIZE":"LARGE","TLE_LINE1":"1 48450U 21040Y   22002.87327094  .00001739  00000-0  13565-3 0  9997","SITE":"AFETR","MEAN_ELEMENT_THEORY":"SGP4","MEAN_ANOMALY":"279.4021","LAUNCH_DATE":"2021-05-09"}];
